[{"OBJECT_NAME":"MONITOR-2 (RS39S)","OBJECT_ID":"2023-091U","EPOCH":"2026-03-09T22:29:03.497856","MEAN_MOTION":15.17917968,"ECCENTRICITY":0.00130556,"INCLINATION":97.5198,"RA_OF_ASC_NODE":127.8703,"ARG_OF_PERICENTER":98.0854,"MEAN_ANOMALY":262.1862,"EPHEMERIS_TYPE":0,"CLASSIFICATION_TYPE":"U","NORAD_CAT_ID":57184,"ELEMENT_SET_NO":999,"REV_AT_EPOCH":14889,"BSTAR":0.00030772379,"MEAN_MOTION_DOT":6.188e-5,"MEAN_MOTION_DDOT":0},{"OBJECT_NAME":"GEESAT-4 08","OBJECT_ID":"2025-170H","EPOCH":"2026-03-09T21:04:12.427104","MEAN_MOTION":15.14705127,"ECCENTRICITY":0.00114102,"INCLINATION":49.9764,"RA_OF_ASC_NODE":229.0077,"ARG_OF_PERICENTER":340.9051,"MEAN_ANOMALY":19.1471,"EPHEMERIS_TYPE":0,"CLASSIFICATION_TYPE":"U","NORAD_CAT_ID":65126,"ELEMENT_SET_NO":999,"REV_AT_EPOCH":3229,"BSTAR":0.00074081208,"MEAN_MOTION_DOT":0.00013648,"MEAN_MOTION_DDOT":0}]
